{"type":"Topology","arcs":[[[47779,7835],[60,-141],[-140,-19],[43,-270],[-2407,836]],[[45335,8241],[140,241],[-232,247],[0,296],[-162,173],[-653,62],[-110,-140],[-254,80],[-90,-136],[-140,-9],[-569,187],[-172,-110],[-719,70],[-356,226],[-700,-60],[-87,-163],[74,-98],[-328,-55],[-976,734],[-451,133],[-63,215],[-227,18],[-94,184],[34,291],[-304,132],[-290,1],[-124,159],[-123,-173]],[[38359,10746],[-36,-52]],[[38323,10694],[-37,-53],[-148,25],[-72,232],[-129,40],[37,228],[-207,37]],[[37767,11203],[-11,140],[-74,32]],[[37682,11375],[-37,16]],[[37645,11391],[-133,58],[-308,-1]],[[37204,11448],[-112,0]],[[37092,11448],[-46,0],[-215,-137]],[[36831,11311],[-198,106]],[[36633,11417],[-147,78],[-302,26]],[[36184,11521],[-7,0],[0,9]],[[36177,11530],[-4,5977]],[[36173,17507],[10256,0],[702,505],[259,-71],[755,115],[196,-151],[398,36],[334,-127],[44,-123],[296,-112]],[[49413,17579],[8,-194],[59,-36]],[[49480,17349],[16,-56],[33,26]],[[49529,17319],[39,-24],[90,123]],[[49658,17418],[312,240],[91,-103],[302,61],[84,237],[-156,224],[558,181],[96,128],[151,-95],[44,83],[177,-113],[166,64],[294,-57],[89,129],[483,102]],[[52349,18499],[-76,-62],[77,-26],[4,81],[39,-105],[29,-695],[-105,-35],[81,-6],[-315,-491],[-94,-743],[-310,-691],[-56,-277],[132,-226],[-197,-658],[-236,-438],[-272,-227],[-5,-484],[-263,-99],[-169,-207],[-335,30],[-3,-75],[316,32],[-93,-96],[-406,-144],[3,-2],[-183,-199],[-61,143],[0,-141],[-134,-13],[75,-97],[126,104],[-112,-232],[-99,-73],[77,177],[-154,-133],[80,-66],[-112,-191],[-93,-28],[49,89],[-78,52],[35,-104],[-117,-66],[-28,139],[-49,-96],[61,-51],[-126,-92],[186,99],[24,-113],[30,101],[-43,-286],[-126,61],[41,-71],[58,-2],[-19,-160],[-320,-9],[276,-49],[-220,-56],[143,-26],[-315,-275],[-7,-210],[-161,-62],[137,-60],[-198,-307],[108,-260],[-95,98],[-104,-38],[29,-118],[-288,-201],[-190,-401],[-31,-67],[-167,-20],[77,-117],[-112,-106],[-1,-447],[-315,-769],[52,-165],[-93,-35],[170,-69],[1,-2]],[[50078,12868],[35,96],[-169,2],[134,-98]],[[49316,12121],[-42,127],[-120,-26],[107,-21],[-68,-144],[94,88],[29,-24]],[[59450,14518],[54,-57],[-40,-41],[-14,98]],[[50766,13211],[-15,-13],[-9,24],[24,-11]],[[48069,8901],[-5,-17],[-5,16],[10,1]],[[50604,13057],[-17,-5],[9,12],[8,-7]],[[49832,12638],[-18,8],[8,5],[10,-13]],[[46604,9620],[143,348],[250,33],[-358,232],[-401,-218],[-60,-223],[36,-247],[123,-19],[97,-211],[112,-28],[61,88],[-3,245]],[[36184,11521],[20,-25],[429,-79]],[[36831,11311],[261,137]],[[37204,11448],[441,-57]],[[37682,11375],[85,-172]],[[38323,10694],[40,13],[-4,39]],[[45335,8241],[2406,-836],[-259,-63],[-374,-258],[-1540,-42],[-647,-171],[-1166,-808],[55,49],[-166,-45],[107,19],[-36,-22],[-76,1],[-312,-84],[-437,13],[105,-252],[239,135],[-60,-261],[66,-59],[-140,-90],[-310,356],[-129,29],[-146,-116],[-199,289],[-205,-14],[-303,170],[57,153],[171,41],[-77,165],[-302,12],[-91,-180],[64,-42],[-383,-103],[-367,229],[349,-53],[252,243],[-248,361],[-727,-315],[150,-70],[276,53],[18,-107],[-107,-49],[63,-17],[-313,-20],[-505,-230],[-623,-452],[-623,247],[-899,356],[-292,-50],[-521,164],[-180,-72],[31,-110],[-325,22],[-102,198],[-424,196]],[[36130,6751],[15,4818]],[[36145,11569],[32,-39]],[[41545,6264],[169,16],[80,-135],[-316,57],[67,62]],[[41685,6356],[26,126],[266,-84],[-292,-42]],[[43425,5957],[-54,12],[120,7],[-66,-19]],[[43736,6050],[-52,-39],[10,29],[42,10]],[[43214,5969],[50,-2],[-81,-14],[31,16]],[[43666,6013],[16,-8],[-95,-7],[79,15]],[[40901,6514],[14,20],[29,-5],[-43,-15]],[[43349,5936],[83,-5],[-216,8],[133,-3]],[[43667,6034],[-37,-11],[10,14],[27,-3]],[[43429,5957],[50,7],[-20,-10],[-30,3]],[[43550,6013],[-18,0],[23,19],[-5,-19]],[[43515,6001],[14,12],[11,-12],[-25,0]],[[47650,7335],[-1,19],[17,-24],[-16,5]],[[43479,6006],[21,6],[-3,-14],[-18,8]],[[43032,5457],[-13,12],[22,-5],[-9,-7]],[[37474,6322],[-13,-10],[-7,10],[20,0]],[[41764,6230],[10,-17],[-16,11],[6,6]],[[49658,17418],[-129,-99]],[[49480,17349],[-65,229],[-2,1]],[[36173,17507],[0,3567]],[[36173,21074],[-3866,-1]],[[32307,21073],[0,0],[-5,11234]],[[32302,32307],[424,-252],[393,-22],[528,-171],[153,-139],[103,-345],[988,-469],[491,44],[570,253],[168,554],[435,596],[177,500],[-77,188],[80,308],[297,745],[-180,645],[81,381],[13,59],[-170,300],[72,347],[222,359],[-145,324],[401,479],[-238,89],[-151,-48],[332,683],[76,35],[6,-249],[127,149],[-90,111],[229,684],[17,500],[235,40],[55,86],[103,160],[220,-49],[-163,-272],[138,130],[62,-60],[191,-184],[107,-366],[-16,-551],[500,-146],[-213,-226],[0,-211],[217,-50],[74,-204],[172,-73],[-109,-337],[22,6],[-7,8],[15,0],[-1,-7],[216,56],[-54,-334],[123,-355],[-85,-394],[326,-773],[319,-92],[210,264],[184,-55],[230,166],[215,-456],[293,-74],[145,-215],[267,-44],[66,-146],[91,2],[-152,-223],[43,-137],[116,-25],[-165,-220],[319,-729],[-86,-455],[475,-571],[91,82],[140,-31],[-89,-191],[237,-400],[-58,-184],[52,47],[104,-165],[-171,-708],[223,-272],[192,-63],[-62,-433],[211,-216],[405,-131],[148,-143],[97,-5],[74,150],[142,-285],[406,2],[-35,128],[331,-612],[122,-11],[-17,155],[93,-4],[121,-235],[208,31],[232,-110],[-37,-84],[143,-128],[285,102],[26,-155],[122,22],[-6,-122],[123,55],[43,-73],[165,-281],[-224,136],[10,-72],[-108,46],[-24,-172],[236,-345],[259,-32],[-37,-106],[270,-84],[-5,-101],[-11,1],[-45,-163],[154,14],[-2,-283],[127,22],[61,-119],[54,72],[-81,-285],[225,-604],[219,-107],[-9,-38],[4,-4],[-7,-6],[-7,-29],[76,64],[262,-286],[42,-45],[-173,374],[110,237],[80,17],[151,-271],[479,-305],[4,158],[72,-20],[-88,178],[111,27],[52,-150],[4,127],[116,-143],[-149,-7],[46,-107]],[[48647,25150],[36,-86],[81,136],[84,-193],[-110,-528],[156,-418],[-103,-30],[214,-52],[-41,-87],[131,61],[188,-290],[193,-47],[151,-263],[70,12],[-69,89],[133,-44],[1,-100],[38,91],[139,-80],[-91,148],[153,-51],[-18,-77],[63,84],[360,-604],[546,-346],[51,-311],[161,-88],[-110,-63],[473,-104],[12,-164],[-128,-75],[170,71],[-121,-141],[95,-227]],[[51555,21373],[109,-102],[-5,-198],[38,224],[188,-148],[-169,-452],[116,-581],[-20,-28],[92,-306],[-116,68],[16,227],[-111,-159],[130,-127],[-148,-122],[111,-15],[-65,-130],[124,-90],[-352,-255],[405,283],[-13,-146],[162,-126],[-32,-142],[156,-34],[33,401],[134,-40],[-41,-86],[-123,-276],[29,-6],[-71,-118],[16,3],[0,-8],[-16,4],[-53,-87],[75,45],[20,-80],[43,-172],[132,-95]],[[51568,21570],[108,226],[28,170],[-74,32],[303,281],[-140,204],[186,133],[4,-224],[118,-144],[-386,-938],[-129,213],[-7,-18],[-2,20],[4,4],[-3,9],[-14,23],[3,6],[-9,21],[3,8],[12,10],[-5,-36]],[[33802,32173],[194,225],[311,83],[194,-113],[-139,-82],[-60,112],[-124,-244],[-97,29],[-81,-105],[-198,95]],[[49395,23694],[-94,23],[-270,332],[139,6],[126,-66],[72,63],[59,-367],[-32,9]],[[42874,30120],[-165,157],[226,-58],[-31,121],[107,-55],[29,-288],[-134,4],[-32,119]],[[37748,39190],[-56,-34],[-88,128],[111,82],[105,-133],[-72,-43]],[[34222,31618],[-117,41],[128,123],[109,-136],[-120,-28]],[[52194,19843],[-5,-394],[-86,360],[91,34]],[[46470,27925],[94,-79],[-129,-42],[-6,204],[41,-83]],[[48380,25480],[22,94],[92,-105],[-96,-65],[-18,76]],[[37616,39894],[-6,95],[87,12],[7,-110],[-88,3]],[[37869,39814],[-167,32],[106,88],[61,-120]],[[43365,29662],[-8,105],[156,-98],[-148,-7]],[[47594,25618],[59,139],[-9,-214],[-50,75]],[[37634,40940],[115,47],[94,-40],[-209,-7]],[[52180,18922],[30,51],[-24,-201],[-24,119],[18,31]],[[46385,28101],[12,-119],[-66,20],[54,99]],[[43700,29251],[7,-85],[-86,63],[79,22]],[[38352,40812],[143,-7],[-262,-31],[119,38]],[[37780,39367],[104,-24],[-79,-34],[-25,58]],[[46569,27570],[-38,26],[59,82],[-21,-108]],[[48091,26204],[0,68],[70,-55],[-70,-13]],[[52109,19097],[64,22],[-39,-80],[-25,58]],[[45812,28192],[-44,-49],[0,83],[44,-34]],[[33833,32116],[-55,-66],[7,74],[48,-8]],[[48983,24397],[46,58],[16,-51],[-62,-7]],[[47790,25694],[33,-6],[-125,-72],[92,78]],[[49480,23711],[9,25],[72,-144],[-81,119]],[[40344,35159],[41,-16],[-76,-42],[35,58]],[[48233,26135],[-34,-45],[-41,32],[75,13]],[[48314,25469],[55,83],[-1,-40],[-54,-43]],[[34376,31594],[-11,31],[42,59],[-31,-90]],[[33773,31989],[17,-22],[-71,-23],[54,45]],[[51527,21632],[-7,31],[56,21],[-49,-52]],[[47287,27177],[-9,-32],[-50,17],[59,15]],[[37741,39451],[19,-17],[-46,-46],[27,63]],[[42839,30133],[9,-50],[-44,62],[35,-12]],[[40365,35120],[40,-32],[-66,13],[26,19]],[[38366,38951],[-12,-19],[-51,53],[63,-34]],[[34532,32358],[-32,23],[22,30],[10,-53]],[[48010,25844],[-21,-29],[-22,39],[43,-10]],[[42819,30360],[6,30],[40,-18],[-46,-12]],[[38283,39324],[39,-1],[-26,-32],[-13,33]],[[42839,30612],[-49,35],[23,9],[26,-44]],[[46291,27786],[4,34],[26,-94],[-30,60]],[[34184,32146],[29,-7],[-41,-32],[12,39]],[[46520,27659],[5,25],[42,-27],[-47,2]],[[46992,27102],[24,28],[12,-34],[-36,6]],[[41903,34527],[12,27],[29,-30],[-41,3]],[[38326,40816],[25,18],[46,-12],[-71,-6]],[[37874,40589],[-16,-12],[-63,24],[79,-12]],[[38621,40240],[23,18],[42,-16],[-65,-2]],[[37688,40108],[-13,23],[45,5],[-32,-28]],[[38539,40029],[16,22],[26,-28],[-42,6]],[[51617,21887],[11,-29],[-64,74],[53,-45]],[[52105,19183],[-1,-52],[-19,12],[20,40]],[[47042,27090],[-11,26],[36,3],[-25,-29]],[[46846,27241],[-20,-24],[-22,21],[42,3]],[[51940,19480],[17,20],[30,-20],[-47,0]],[[47515,26302],[23,-16],[-49,-7],[26,23]],[[52081,19272],[-7,20],[44,5],[-37,-25]],[[37861,39461],[-12,-33],[-20,17],[32,16]],[[48940,24531],[-28,9],[9,28],[19,-37]],[[40380,35042],[-24,17],[42,4],[-18,-21]],[[46286,27873],[-26,-17],[4,35],[22,-18]],[[46839,27255],[11,23],[21,-31],[-32,8]],[[46433,27782],[-11,-35],[-7,54],[18,-19]],[[37666,40969],[8,24],[31,-10],[-39,-14]],[[47364,26618],[-20,31],[33,-14],[-13,-17]],[[37959,39183],[6,36],[23,10],[-29,-46]],[[51923,19418],[22,20],[-1,-34],[-21,14]],[[46350,27183],[7,30],[16,-32],[-23,2]],[[37692,39368],[-12,-16],[-31,12],[43,4]],[[37831,39212],[12,26],[13,-26],[-25,0]],[[43330,29766],[-11,30],[29,-22],[-18,-8]],[[47573,25810],[45,17],[-24,-23],[-21,6]],[[41273,34719],[26,16],[17,-12],[-43,-4]],[[34718,32168],[23,1],[-42,-28],[19,27]],[[52059,19119],[18,-8],[-16,-25],[-2,33]],[[37593,38898],[14,24],[5,-32],[-19,8]],[[46674,27380],[19,26],[5,-22],[-24,-4]],[[46529,28006],[4,-28],[-23,23],[19,5]],[[38299,40350],[-35,-9],[8,18],[27,-9]],[[46333,28124],[-3,27],[22,-16],[-19,-11]],[[42853,30078],[-5,49],[18,-66],[-13,17]],[[38143,40758],[31,1],[-26,-18],[-5,17]],[[47101,26018],[-12,14],[36,0],[-24,-14]],[[39751,40575],[9,-13],[-28,-14],[19,27]],[[37625,39640],[15,1],[-2,-32],[-13,31]],[[48096,25386],[40,15],[-27,-22],[-13,7]],[[37749,39394],[10,-13],[-27,-9],[17,22]],[[43267,29922],[-21,-15],[4,24],[17,-9]],[[47092,27306],[-9,25],[24,-16],[-15,-9]],[[40122,40176],[-28,-16],[-1,15],[29,1]],[[47661,25546],[-4,-28],[-16,-7],[20,35]],[[40300,35046],[35,30],[3,-9],[-38,-21]],[[37661,39393],[-9,10],[32,10],[-23,-20]],[[47616,25520],[2,22],[16,-21],[-18,-1]],[[48154,25532],[34,7],[-25,-16],[-9,9]],[[43242,29837],[-1,60],[9,-119],[-8,59]],[[39393,37069],[-32,9],[-25,19],[57,-28]],[[46364,27872],[18,24],[-1,-23],[-17,-1]],[[46723,27379],[-7,25],[17,-7],[-10,-18]],[[47636,26987],[12,17],[9,-19],[-21,2]],[[42624,31847],[-25,-20],[7,20],[18,0]],[[43282,29760],[5,-39],[-18,66],[13,-27]],[[51493,21565],[14,5],[2,-22],[-16,17]],[[47668,25582],[10,30],[6,-15],[-16,-15]],[[52149,19473],[10,20],[4,-23],[-14,3]],[[47953,25844],[0,27],[12,-5],[-12,-22]],[[46614,27542],[15,14],[14,-7],[-29,-7]],[[38241,39197],[-26,26],[49,-38],[-23,12]],[[46605,27872],[-25,-35],[36,60],[-11,-25]],[[48099,26386],[-12,7],[40,0],[-28,-7]],[[46264,27909],[-26,32],[19,-13],[7,-19]],[[33940,31760],[-3,16],[19,-8],[-16,-8]],[[48653,25867],[3,17],[15,-9],[-18,-8]],[[47206,25834],[22,22],[6,-6],[-28,-16]],[[42886,30023],[-3,-13],[-21,1],[24,12]],[[45969,28019],[15,12],[2,-17],[-17,5]],[[39269,40369],[29,-1],[-30,-8],[1,9]],[[33675,31890],[21,-19],[-40,23],[19,-4]],[[52048,19072],[19,-1],[7,-15],[-26,16]],[[48208,26211],[-16,14],[32,-10],[-16,-4]],[[48869,24023],[26,8],[-9,-13],[-17,5]],[[46654,27639],[-1,-17],[-14,16],[15,1]],[[48121,26425],[-7,16],[20,-7],[-13,-9]],[[51494,21581],[13,11],[7,-15],[-20,4]],[[52068,19210],[1,-12],[-21,3],[20,9]],[[38091,39776],[-6,-15],[-12,12],[18,3]],[[52139,19143],[-22,-11],[14,18],[8,-7]],[[37675,39803],[11,23],[0,-23],[-11,0]],[[45553,28150],[6,13],[14,-6],[-20,-7]],[[38470,40188],[-16,-4],[-6,12],[22,-8]],[[47223,25670],[5,7],[14,-23],[-19,16]],[[40463,35206],[15,11],[-5,-17],[-10,6]],[[43393,29339],[-1,8],[25,0],[-24,-8]],[[47277,27270],[9,21],[4,-14],[-13,-7]],[[38256,39358],[-5,11],[22,-9],[-17,-2]],[[33896,31729],[44,-40],[-76,65],[32,-25]],[[49260,24151],[-13,8],[23,1],[-10,-9]],[[47399,26467],[3,19],[7,-24],[-10,5]],[[39094,37710],[-4,16],[17,-14],[-13,-2]],[[37527,39636],[0,13],[16,1],[-16,-14]],[[47915,25900],[-4,12],[14,8],[-10,-20]],[[43317,29576],[9,-14],[-25,16],[16,-2]],[[41076,34805],[15,10],[-2,-14],[-13,4]],[[47006,27282],[8,-8],[-28,2],[20,6]],[[47933,25827],[6,8],[13,-13],[-19,5]],[[43432,29354],[14,-10],[-18,-1],[4,11]],[[49619,23382],[-9,10],[11,9],[-2,-19]],[[42810,30559],[-11,6],[14,9],[-3,-15]],[[42639,31573],[-6,-11],[-9,13],[15,-2]],[[47629,26413],[2,18],[8,-16],[-10,-2]],[[49300,24042],[27,-10],[-43,8],[16,2]],[[52069,19140],[5,5],[17,-18],[-22,13]],[[47520,25835],[5,6],[15,-17],[-20,11]],[[47665,26417],[0,-12],[-15,12],[15,0]],[[34304,31605],[4,16],[10,1],[-14,-17]],[[48238,25798],[6,8],[10,-14],[-16,6]],[[42910,30240],[14,-5],[4,-13],[-18,18]],[[51587,21673],[7,21],[5,-10],[-12,-11]],[[47559,26221],[-1,18],[10,-16],[-9,-2]],[[37765,40992],[12,2],[10,-12],[-22,10]],[[38124,39840],[-12,13],[16,-4],[-4,-9]],[[42861,30050],[-24,-8],[8,9],[16,-1]],[[52162,18836],[-8,14],[12,-1],[-4,-13]],[[46587,27570],[0,13],[12,-10],[-12,-3]],[[46319,27462],[-10,-2],[-1,14],[11,-12]],[[46035,28069],[-8,7],[10,10],[-2,-17]],[[49971,24274],[-7,8],[20,0],[-13,-8]],[[47653,25252],[-13,19],[14,-10],[-1,-9]],[[46625,27855],[-8,12],[4,13],[4,-25]],[[51520,21606],[-2,-19],[-7,8],[9,11]],[[34637,32355],[-5,12],[14,-5],[-9,-7]],[[51483,21588],[4,-14],[-12,6],[8,8]],[[33683,31915],[-10,-11],[5,19],[5,-8]],[[42844,30057],[-7,11],[11,5],[-4,-16]],[[39247,36669],[4,-11],[-13,0],[9,11]],[[46641,27770],[-3,17],[9,-5],[-6,-12]],[[47331,25846],[-3,14],[12,-11],[-9,-3]],[[49161,24449],[1,-11],[-13,3],[12,8]],[[46527,27715],[-13,4],[2,9],[11,-13]],[[51506,21603],[-5,-9],[-12,3],[17,6]],[[39253,36660],[0,9],[15,-5],[-15,-4]],[[42848,30082],[-7,-11],[-7,7],[14,4]],[[47505,26012],[1,9],[13,-1],[-14,-8]],[[38860,37974],[12,-1],[2,-10],[-14,11]],[[46590,27681],[2,14],[10,3],[-12,-17]],[[48635,25708],[0,13],[9,-10],[-9,-3]],[[47567,26479],[9,4],[9,-8],[-18,4]],[[46742,27380],[10,-6],[-5,-8],[-5,14]],[[46381,27178],[-4,11],[13,-6],[-9,-5]],[[33956,32626],[-7,-8],[-2,13],[9,-5]],[[39678,35474],[-4,14],[9,-5],[-5,-9]],[[39349,37810],[9,7],[0,-10],[-9,3]],[[33790,32046],[-13,-6],[3,9],[10,-3]],[[42848,30052],[6,11],[4,-7],[-10,-4]],[[41651,34538],[6,11],[4,-7],[-10,-4]],[[38115,39883],[9,4],[2,-7],[-11,3]],[[51581,21654],[-2,-2]],[[51579,21652],[2,2]],[[42203,32081],[9,7],[3,-5],[-12,-2]],[[51578,21651],[1,1]],[[51579,21652],[-1,-1]],[[36130,6751],[-392,-6],[-342,167],[-357,465],[-358,245],[-221,433],[232,158],[-37,318],[-293,503],[-379,366],[-724,367],[-278,-151],[-549,22],[444,326],[100,378],[-52,296],[25,-81],[89,31],[-52,55],[-335,358],[-211,402],[-276,-437],[-166,-723],[-156,-62],[-277,83],[-696,-240],[-79,65],[11,18],[237,400],[560,-20],[77,347],[-33,212],[-88,-25],[110,176],[-65,209],[93,9],[101,299],[486,377],[-214,348],[313,180],[-132,129],[-10,295],[-137,73],[-99,313],[34,-674],[-188,54],[-244,-209],[-308,-630],[-799,-284],[-620,-545],[-25,-218],[-47,76],[-160,-60],[7,-142],[-107,-19],[47,-102],[-135,-69],[285,87],[-68,-321],[-103,85],[-106,87],[-223,-98],[-473,465],[-184,-43],[125,189],[19,-83],[172,-27],[-73,-36],[88,-107],[195,35],[-110,12],[-35,114],[-20,-105],[-177,729],[-544,422],[20,226],[-241,239],[22,28],[-12,-4],[6,14],[10,-5],[30,38],[-185,16],[94,-100],[-232,119],[-106,-37],[-120,180],[67,-207],[-126,185],[-80,-15],[44,109],[-182,67],[101,80],[-102,141],[120,-3],[89,-78],[56,256],[-269,158],[-268,-120],[23,170],[109,13],[-168,183],[-183,37],[-14,118],[-352,-46],[120,-76],[-467,-3],[-488,309],[-704,-93],[-569,365],[-786,304],[-442,-169],[-843,34],[-1482,-130]],[[20713,14315],[0,6755]],[[20713,21070],[11,0],[11583,3]],[[36173,21074],[-28,-9505]],[[32239,9524],[242,-146],[-120,-72],[-387,61],[-360,-264],[-325,120],[-650,-107],[-221,223],[69,152],[946,203],[402,16],[-71,-192],[261,2],[-33,-141],[247,145]],[[27735,11849],[99,101],[25,-54],[-124,-47]],[[26650,13599],[-89,13],[173,55],[-84,-68]],[[31471,10995],[41,-18],[-39,-43],[-2,61]],[[29629,10721],[-4,47],[45,-60],[-41,13]],[[29919,10382],[74,-78],[-155,141],[81,-63]],[[26882,13517],[33,4],[56,-39],[-89,35]],[[26235,13322],[-21,32],[51,-4],[-30,-28]],[[30313,10207],[52,-35],[-62,18],[10,17]],[[30190,10789],[-16,-32],[-18,29],[34,3]],[[28196,12034],[-42,15],[43,4],[-1,-19]],[[27500,11609],[-6,34],[17,-9],[-11,-25]],[[30099,10947],[25,23],[-37,-55],[12,32]],[[26513,13569],[16,17],[20,-5],[-36,-12]],[[29732,10524],[14,14],[2,-27],[-16,13]],[[26728,13422],[19,-3],[-33,-18],[14,21]],[[29669,10866],[-8,27],[17,-8],[-9,-19]],[[26226,13268],[5,17],[19,-2],[-24,-15]],[[26700,13405],[-10,-12],[-18,7],[28,5]],[[29797,10416],[11,15],[13,-7],[-24,-8]],[[29803,10101],[22,8],[-3,-12],[-19,4]],[[29700,10350],[-1,-15],[-12,19],[13,-4]],[[26478,13493],[13,13],[-2,-18],[-11,5]],[[33004,10615],[5,-5],[-24,-4],[16,10],[3,-1]],[[26339,13473],[18,1],[-10,-10],[-8,9]],[[30090,10759],[-12,-2],[-3,11],[15,-9]],[[27466,11557],[3,14],[8,-10],[-11,-4]],[[30838,9936],[-4,8],[14,-3],[-10,-5]],[[30054,10942],[7,9],[6,-4],[-13,-5]],[[26295,13358],[-5,10],[8,0],[-3,-10]],[[923,22397],[0,4],[81,33],[-115,-10],[7,134],[-288,398],[90,608],[400,509],[-26,415],[85,196],[-221,448],[439,836],[253,71],[-144,-402],[47,-211],[80,31],[-69,-246],[203,93],[75,-97],[46,94],[350,703],[343,186],[766,176],[186,266],[247,75],[95,206],[294,79],[76,212],[373,-20],[-68,32],[108,85],[205,3],[-55,54],[215,209],[75,3],[-50,-217],[118,-38],[338,177],[-13,-130],[270,-98],[321,142],[33,-60],[198,48],[93,145],[120,3],[-44,83],[310,171],[18,-81],[850,134],[315,395],[605,-144],[238,69],[13,78],[608,63],[1038,378],[547,500],[241,389],[-45,155],[226,58],[-83,96],[111,149],[170,14],[545,383],[10,150],[-261,19],[-3,843],[188,125],[-85,46],[146,145],[148,20],[-1,103],[170,-84],[-101,152],[58,89],[344,-35],[-134,129],[236,349],[147,36],[49,-96],[-121,-30],[-37,-136],[238,-129],[6,-127],[7,-154],[325,-458],[-2,11],[30,-27],[-21,7],[223,-316],[85,475],[-80,180],[83,39],[341,-252],[-150,247],[210,181],[-210,-72],[-109,189],[-269,112],[144,125],[-114,-45],[15,-7],[-17,-10],[-5,14],[-11,-5],[-107,118],[69,2],[232,7],[-198,132],[132,-44],[2,4],[12,-9],[56,-19],[-12,25],[-28,8],[-17,10],[44,-16],[-35,68],[114,-17],[-215,105],[86,25],[-77,100],[275,8],[57,-58],[-87,-47],[24,-6],[-24,-1],[153,-74],[6,-141],[17,169],[80,-46],[-32,23],[40,-23],[0,-5],[46,-27],[-100,190],[275,-83],[128,-164],[197,-29],[-50,28],[64,87],[80,-78],[605,-10],[45,58],[-180,-54],[-539,92],[63,325],[82,-167],[179,128],[-76,-14],[26,260],[173,82],[-48,96],[-93,-45],[-176,-259],[-16,37],[-9,-18],[-4,7],[13,11],[-29,69],[-16,-92],[3,26],[13,66],[-15,34],[-3,-11],[-7,16],[7,3],[-101,238],[170,42],[-124,25],[137,109],[-80,31],[232,-34],[22,120],[36,-86],[92,161],[-107,8],[55,122],[62,-120],[121,65],[170,-132],[49,-160],[93,97],[84,-54],[344,-222],[-453,304],[122,129],[-97,-8],[39,97],[-285,-100],[35,125],[-64,-32],[26,106],[-78,-10],[251,81],[-23,154],[80,9],[114,-208],[152,63],[115,-31],[143,-37],[-159,56],[160,129],[-299,31],[2,-22],[-29,-4],[22,27],[-42,4],[156,103],[-243,137],[209,139],[-64,66],[14,11],[-20,7],[15,18],[10,-21],[121,91],[81,-162],[116,168],[102,-75],[-32,358],[71,33],[130,-57],[-101,-124],[-6,-311],[202,242],[142,-256],[9,146],[168,8],[-64,108],[-23,-9],[5,13],[17,-2],[-31,53],[143,50],[-45,115],[151,128],[-228,93],[-12,93],[34,-89],[36,98],[84,-70],[-120,135],[190,15],[-61,-134],[136,71],[-84,-133],[82,5],[23,-87],[7,3],[2,-19],[-8,10],[27,-101],[138,58],[-81,61],[46,105],[306,130],[-158,-170],[98,2],[100,-183],[55,189],[63,-69],[89,101],[-75,91],[258,-13],[-209,230],[129,-31],[92,90],[215,-117],[65,-140],[1,1]],[[18304,35372],[12,-30],[64,93],[21,-83],[51,88],[236,-52],[29,-137],[280,-157],[44,-57],[15,6],[-5,-12],[-9,5],[194,-250],[21,16],[-13,-26],[117,-151],[345,-155],[-131,-172],[-101,-513],[63,-115],[-116,-152],[148,107],[18,290],[276,-377],[-104,265],[-87,220],[92,130],[85,-61],[-22,129],[61,-167],[-5,90],[67,-49],[-67,175],[208,-155],[-67,104],[-29,39],[4,-1],[-71,109],[203,43],[581,-133]],[[20712,34276],[1,-13206]],[[20713,14315],[-886,-347],[-1274,-330],[-841,-61],[-606,90],[-324,-70],[-1466,-691],[-740,-172],[-178,-188],[-161,-455],[-570,-452],[-210,52],[-268,-143],[-37,134],[-143,56],[-521,-43],[-61,-81],[-268,56],[-322,-122],[-145,223],[-272,-95],[-552,111],[-991,-84],[-201,-102],[-507,58],[-575,-252],[-181,-183],[152,-117],[-204,18],[3,-102],[-166,8],[-45,-99],[-442,86],[-202,-99],[-43,-132],[-363,-123],[-49,-185],[-289,-26],[14,-103],[-292,15],[17,89],[-160,-114],[219,-89],[-432,78],[-96,-107],[-360,131],[173,2],[-14,64],[-254,-72],[-139,-39],[-861,53],[-298,166],[-321,41],[-546,499],[-527,118],[10,67],[-55,-131],[-142,146],[-26,858],[262,-143],[206,14],[385,377],[-75,778],[44,56],[91,-200],[-60,204],[145,24],[-120,392],[116,86],[-56,164],[219,33],[-65,66],[-164,-97],[-49,475],[-814,1365],[-83,350],[-45,191],[55,659],[-162,448],[-381,396],[46,142],[-104,200],[-459,457],[-90,311],[99,201],[-278,532],[-1044,1282],[147,-106],[37,268],[36,-381],[94,-96],[-82,140],[36,336],[184,-412],[-39,-135],[78,234],[27,-349],[63,-38],[31,170],[18,-108],[24,-143],[283,198],[-3,205],[-223,163],[157,52],[38,156],[-29,25],[32,-14],[20,81],[124,-471],[134,-149],[207,183],[-55,391],[90,2],[2,112],[-253,239],[-85,80],[-155,339],[-86,190],[-195,179],[-28,168]],[[14772,32408],[24,-107],[75,52],[-99,55]],[[1000,20837],[-160,117],[-139,461],[-4,-91],[-71,72],[125,263],[324,-446],[-75,-376]],[[108,21643],[263,-766],[-322,453],[-49,298],[108,15]],[[14917,33676],[-55,34],[141,132],[109,-184],[-168,-57],[85,94],[-112,-19]],[[3085,27235],[189,152],[-95,-244],[-95,-8],[1,100]],[[15828,34598],[-99,-46],[-49,120],[72,-23],[17,149],[63,-198],[-4,-2]],[[19586,33947],[-3,139],[94,-182],[-91,43]],[[14755,33751],[82,85],[26,-66],[-108,-19]],[[15441,34108],[8,118],[54,-130],[-62,12]],[[5020,27603],[80,88],[-15,-103],[-65,15]],[[13966,32761],[-107,51],[137,-2],[-30,-49]],[[15786,34074],[68,-25],[-57,-62],[-11,87]],[[1274,21236],[-47,-33],[-36,84],[83,-51]],[[226,22052],[-35,-120],[54,334],[-19,-214]],[[15310,33850],[62,-21],[-58,-59],[-4,80]],[[13643,32625],[-33,-18],[-41,62],[95,-32],[7,-5],[-17,-17],[-2,3],[-9,-28],[-3,21],[12,7],[-9,7]],[[3367,13950],[-17,-40],[-100,2],[117,38]],[[17600,35459],[44,-8],[-103,-9],[-47,34],[106,-17]],[[15023,33004],[-70,-18],[80,72],[-10,-54]],[[4667,27476],[-112,-6],[159,41],[-47,-35]],[[255,22384],[44,164],[-53,-276],[9,112]],[[16239,34812],[38,-78],[-47,11],[9,67]],[[4728,27377],[66,8],[-91,-61],[25,53]],[[16856,34986],[17,-84],[-36,36],[-23,-19],[0,12],[22,7],[-11,11],[31,37]],[[4746,27491],[82,54],[-52,-73],[-30,19]],[[2031,25801],[48,10],[-6,-64],[-42,54]],[[16481,34754],[40,77],[8,-57],[-48,-20]],[[13243,11429],[-62,8],[75,35],[-13,-43]],[[15877,34582],[23,-28],[-81,-8],[58,36]],[[13239,32483],[-36,-52],[-8,51],[44,1]],[[4745,27654],[-11,-45],[-46,9],[57,36]],[[14543,33010],[26,-30],[-42,7],[-9,52],[21,-25],[2,9],[10,-13],[-8,0]],[[14149,32616],[-59,49],[100,-50],[-41,1]],[[16780,34921],[26,-14],[-37,-48],[11,62]],[[13591,32197],[-23,16],[98,9],[-75,-25]],[[4807,27489],[11,-40],[-41,-5],[30,45]],[[13447,32252],[-14,64],[46,-89],[-32,25]],[[14631,33784],[-66,-30],[30,39],[36,-9]],[[15586,33749],[-5,-55],[-31,-7],[36,62]],[[14403,32639],[10,34],[41,-24],[-51,-10]],[[1335,17558],[53,67],[-56,-101],[3,34]],[[13685,32827],[-23,50],[44,-24],[-21,-26]],[[6163,27431],[8,42],[35,-23],[-43,-19]],[[14661,33713],[50,48],[8,-23],[-58,-25]],[[7131,10460],[-27,34],[59,-20],[-32,-14]],[[14033,32625],[-18,29],[35,25],[-17,-54]],[[14381,32824],[-23,-8],[-2,33],[42,-19],[-17,-6]],[[5147,27708],[-116,66],[156,-78],[-40,12]],[[4973,27588],[51,53],[-37,-63],[-14,10]],[[3533,13710],[-11,48],[50,-106],[-39,58]],[[16139,34729],[-9,21],[67,-23],[-58,2]],[[17325,35322],[-2,27],[42,-15],[-40,-12]],[[14743,33685],[4,-26],[-44,28],[40,-2]],[[977,18120],[19,51],[9,-30],[-28,-21]],[[15546,34692],[-21,28],[18,26],[3,-54]],[[14390,32774],[0,-25],[-41,30],[41,-5]],[[2262,26258],[-24,47],[42,-41],[-18,-6]],[[919,22379],[-27,30],[31,1],[-4,-31]],[[17243,35406],[15,-18],[-27,-29],[12,47]],[[13494,32786],[-5,31],[35,-28],[-30,-3]],[[13677,31419],[3,62],[13,-49],[-16,-13]],[[3219,26382],[12,28],[38,12],[-50,-40]],[[15528,34824],[-25,19],[18,23],[7,-42]],[[13645,32913],[45,-22],[-28,-5],[-17,27]],[[1776,26162],[15,30],[41,31],[-56,-61]],[[13265,32462],[-30,-21],[18,39],[12,-18]],[[2638,26459],[19,13],[45,-9],[-64,-4]],[[14110,32605],[-27,40],[34,-24],[-7,-16]],[[16365,35367],[3,36],[18,-24],[-21,-12]],[[17054,35364],[10,32],[26,11],[-36,-43]],[[5004,27664],[36,25],[-53,-56],[17,31]],[[15057,33797],[11,20],[23,-19],[-34,-1]],[[19812,34429],[-10,19],[50,-29],[-40,10]],[[16838,34874],[-31,-14],[16,28],[15,-14]],[[3285,26393],[24,7],[-5,-28],[-19,21]],[[14840,32498],[-14,10],[41,15],[-27,-25]],[[17737,35403],[9,-16],[-30,-20],[21,36]],[[1021,18165],[-3,18],[35,5],[-32,-23]],[[13717,32757],[18,19],[12,-23],[-30,4]],[[3090,27038],[-13,32],[29,-22],[-16,-10]],[[13549,32810],[-12,45],[17,-12],[-5,-33]],[[2943,26297],[22,34],[21,5],[-43,-39]],[[14579,32499],[8,-33],[-33,66],[25,-33]],[[15048,33596],[-14,15],[32,9],[-18,-24]],[[15494,33700],[3,15],[39,11],[-42,-26]],[[13424,32441],[21,-3],[-20,-23],[-1,26]],[[13877,33024],[7,-30],[-17,-9],[10,39]],[[1844,26234],[21,27],[22,3],[-43,-30]],[[3807,27067],[24,14],[1,-22],[-25,8]],[[15301,33868],[-24,5],[21,18],[3,-23]],[[16461,35150],[-13,42],[15,-9],[-2,-33]],[[13429,32535],[-17,-16],[-1,31],[18,-15]],[[13538,32754],[27,7],[8,-17],[-35,10]],[[15216,34234],[15,10],[-11,-42],[-4,32]],[[13543,32615],[2,19],[27,-9],[-29,-10]],[[15528,34789],[9,25],[13,-23],[-22,-2]],[[15929,34991],[28,-2],[-16,-17],[-12,19]],[[15876,34020],[-26,-1],[26,21],[0,-20]],[[18334,35441],[9,19],[16,-25],[-25,6]],[[15829,34947],[13,33],[8,-20],[-21,-13]],[[14457,11753],[-22,-24],[1,25],[21,-1]],[[13780,32526],[-28,31],[36,-21],[-8,-10]],[[11695,11605],[8,19],[22,-12],[-30,-7]],[[15878,34812],[-4,16],[33,0],[-29,-16]],[[13407,32753],[-12,20],[38,-22],[-26,2]],[[11702,11540],[-8,-17],[-27,1],[35,16]],[[13634,32757],[14,21],[5,-26],[-19,5]],[[14563,33024],[-13,-11],[-9,29],[22,-18]],[[5011,27691],[24,10],[-27,-31],[3,21]],[[15510,34035],[-16,-19],[33,68],[-17,-49]],[[17644,35474],[6,21],[13,-27],[-19,6]],[[12766,11581],[36,7],[-63,-25],[27,18]],[[15902,34750],[-25,19],[22,1],[3,-20]],[[14109,32709],[18,-5],[-21,-19],[3,24]],[[19666,33891],[0,-10],[-47,38],[47,-28]],[[14764,33849],[19,13],[-5,-26],[-14,13]],[[19180,34872],[-2,30],[16,-17],[-14,-13]],[[17240,35453],[-2,27],[18,-25],[-16,-2]],[[15481,34048],[22,36],[-10,-36],[-12,0]],[[15383,34106],[-28,-3],[21,17],[7,-14]],[[19555,33929],[14,1],[-18,-31],[4,30]],[[15807,34198],[17,-9],[-14,-17],[-3,26]],[[15591,34379],[-13,15],[12,18],[1,-33]],[[11175,11526],[-9,8],[29,18],[-20,-26]],[[1600,25279],[-28,-40],[27,52],[1,-12]],[[13984,32732],[-10,17],[46,-42],[-36,25]],[[3348,27664],[9,39],[-16,-109],[7,70]],[[19762,33758],[13,1],[9,-29],[-22,28]],[[11630,11510],[35,0],[-33,-11],[-2,11]],[[13828,32536],[-11,-4],[-35,22],[46,-18]],[[14886,33603],[17,15],[15,-9],[-32,-6]],[[13134,32454],[20,15],[-11,-26],[-9,11]],[[7184,27814],[3,11],[29,-1],[-32,-10]],[[14063,32695],[-13,9],[13,18],[0,-27]],[[13505,32842],[-25,20],[39,-17],[-14,-3]],[[16856,35040],[44,4],[-64,-13],[20,9]],[[3088,27100],[-9,-19],[6,51],[3,-32]],[[17235,35411],[13,27],[4,-17],[-17,-10]],[[14855,32915],[10,32],[8,-9],[-18,-23]],[[15229,34191],[14,12],[8,-16],[-22,4]],[[17195,35403],[30,-13],[-14,-5],[-16,18]],[[11264,11565],[13,10],[14,-14],[-27,4]],[[13478,32320],[-9,11],[23,5],[-14,-16]],[[4828,27578],[21,19],[-3,-17],[-18,-2]],[[15193,34285],[-4,14],[22,0],[-18,-14]],[[4520,27412],[17,9],[4,-17],[-21,8]],[[3335,27764],[22,2],[9,-13],[-31,11]],[[4828,27411],[0,11],[29,7],[-29,-18]],[[13175,32443],[9,26],[10,-3],[-19,-23]],[[2117,25818],[-6,17],[17,4],[-11,-21]],[[13694,32639],[-10,8],[33,2],[-23,-10]],[[16012,34106],[17,15],[-8,-24],[-9,9]],[[16207,34804],[-1,12],[23,2],[-22,-14]],[[13703,32666],[-19,18],[42,-25],[-23,7]],[[13494,32493],[-22,9],[26,2],[-4,-11]],[[15273,34114],[13,4],[-20,-26],[7,22]],[[6337,27555],[36,27],[-15,-19],[-21,-8]],[[16498,35092],[-1,21],[13,-11],[-12,-10]],[[13521,32621],[4,-4],[12,8],[4,-7],[-16,-2],[8,-11],[-18,3],[6,13]],[[16570,35119],[-9,18],[18,-7],[-9,-11]],[[1076,20423],[13,14],[4,-15],[-17,1]],[[5206,27687],[8,-21],[-20,18],[12,3]],[[1204,20632],[3,22],[4,-41],[-7,19]],[[14918,33869],[5,21],[9,-12],[-14,-9]],[[13674,11134],[29,33],[-36,-48],[7,15]],[[14876,33754],[6,11],[16,-12],[-22,1]],[[13563,32314],[-31,8],[15,4],[16,-12]],[[16099,34651],[1,15],[15,0],[-16,-15]],[[13628,31280],[-19,15],[-9,19],[28,-34]],[[13559,31354],[-8,19],[18,-14],[-10,-5]],[[852,18335],[8,15],[10,-9],[-18,-6]],[[13384,32774],[-7,11],[26,-7],[-19,-4]],[[16434,35125],[2,-14],[-18,11],[16,3]],[[14389,32671],[-11,-8],[-15,9],[26,-1]],[[13750,32841],[-17,8],[72,-22],[-55,14]],[[14511,33733],[25,8],[-2,-9],[-23,1]],[[16108,34677],[7,13],[11,-11],[-18,-2]],[[15078,33177],[35,19],[-10,-12],[-25,-7]],[[12720,11551],[12,14],[6,-10],[-18,-4]],[[15789,34308],[7,-26],[-13,19],[6,7]],[[11679,11577],[5,13],[13,-7],[-18,-6]],[[13663,31364],[-4,29],[9,-16],[-5,-13]],[[5344,27670],[6,14],[-5,-43],[-1,29]],[[6593,10303],[-6,6],[39,-6]],[[6626,10303],[-33,0]],[[13109,32440],[37,-12],[-50,10],[13,2]],[[14507,32997],[-14,10],[3,12],[11,-22]],[[16007,34040],[22,-1],[-12,-8],[-10,9]],[[3155,26479],[-4,-17],[-13,-5],[17,22]],[[13662,11545],[-4,17],[13,-5],[-9,-12]],[[14353,32657],[20,-10],[-10,-4],[-10,14]],[[3389,27729],[-10,17],[42,-50],[-32,33]],[[4161,27084],[-7,-15],[-6,14],[13,1]],[[13474,32877],[51,-17],[-59,15],[8,2]],[[16306,34888],[-11,5],[5,14],[6,-19]],[[6573,10324],[13,9],[16,-5],[-29,-4]],[[13596,32220],[5,14],[13,-1],[-18,-13]],[[19745,33785],[-9,13],[29,-20],[-20,7]],[[14362,32739],[-7,9],[16,6],[-9,-15]],[[14114,32740],[17,-20],[-22,15],[5,5]],[[11420,11656],[6,9],[13,-9],[-19,0]],[[14027,32709],[-21,14],[14,-1],[7,-13]],[[11679,11495],[-3,-9],[-17,6],[20,3]],[[15134,34198],[-10,-6],[-7,15],[17,-9]],[[13573,32758],[-23,19],[20,-10],[3,-9]],[[11701,11422],[-27,9],[14,1],[13,-10]],[[14720,32531],[10,8],[-6,-21],[-4,13]],[[3347,27733],[2,-14],[-11,0],[9,14]],[[16200,34714],[-10,6],[16,7],[-6,-13]],[[3202,26396],[1,9],[19,5],[-20,-14]],[[11690,11488],[11,6],[19,-5],[-30,-1]],[[13381,32563],[-4,18],[13,-18],[-9,0]],[[4778,27536],[17,8],[-3,-11],[-14,3]],[[13204,32514],[34,2],[-1,-5],[-33,3]],[[16426,34884],[8,-10],[-11,-7],[3,17]],[[17622,35380],[-10,8],[7,9],[3,-17]],[[13448,32880],[15,-5],[-19,-3],[4,8]],[[2014,25678],[-1,-19],[-8,0],[9,19]],[[13175,32485],[8,-12],[-16,5],[8,7]],[[13683,31380],[-6,13],[8,9],[-2,-22]],[[1108,17846],[-5,-11],[-5,17],[10,-6]],[[14067,32670],[-3,-13],[-6,21],[9,-8]],[[15613,33755],[10,12],[-4,-18],[-6,6]],[[14896,33581],[13,15],[4,-6],[-17,-9]],[[13683,32695],[-9,27],[7,-8],[2,-19]],[[13719,32639],[1,-13],[-10,0],[9,13]],[[13523,32536],[-9,1],[5,14],[4,-15]],[[15099,33925],[-2,16],[9,-9],[-7,-7]],[[16126,34646],[0,-14],[-9,-4],[9,18]],[[15720,34417],[4,17],[5,-11],[-9,-6]],[[16742,34934],[11,4],[7,-8],[-18,4]],[[14721,32512],[-14,6],[1,8],[13,-14]],[[4809,27574],[-5,7],[19,-3],[-14,-4]],[[15862,34815],[1,14],[8,-9],[-9,-5]],[[2358,26380],[10,8],[2,-10],[-12,2]],[[11527,11656],[5,10],[9,-4],[-14,-6]],[[14958,33848],[12,16],[1,-9],[-13,-7]],[[14771,33722],[2,10],[11,-5],[-13,-5]],[[15988,34008],[-5,18],[7,-5],[-2,-13]],[[13222,11474],[-7,-10],[-5,9],[12,1]],[[11657,11428],[8,6],[5,-11],[-13,5]],[[2045,25708],[-3,-14],[-7,0],[10,14]],[[6103,27430],[18,13],[6,-1],[-24,-12]],[[15810,34760],[6,13],[6,-6],[-12,-7]],[[3379,27677],[-3,-13],[-6,8],[9,5]],[[15324,34157],[4,13],[8,0],[-12,-13]],[[14874,32951],[0,13],[8,-5],[-8,-8]],[[15963,34997],[-2,14],[8,-4],[-6,-10]],[[15413,33811],[12,12],[2,-6],[-14,-6]],[[15554,34746],[3,12],[8,0],[-11,-12]],[[1880,25342],[-13,4],[7,4],[6,-8]],[[16081,34912],[-4,12],[6,0],[-2,-12]],[[13367,32573],[-1,9],[7,-1],[-6,-8]],[[15159,32512],[2,19],[-26,-8],[24,-11]],[[15185,32493],[-1,25],[-41,-11],[42,-14]],[[16136,33967],[40,-12],[-4,15],[-36,-3]],[[41223,2461],[-222,293],[-46,179],[-66,253],[183,-5],[-250,62],[137,186],[-26,225],[513,-219],[216,50],[2,111],[36,-165],[288,-3],[825,-384],[264,23],[41,-95],[-24,84],[209,58],[96,-167],[-55,134],[263,79],[67,-70],[-63,-32],[171,-5],[-151,137],[302,88],[176,-61],[158,106],[199,-83],[303,227],[302,-68],[46,165],[366,-128],[162,-176],[-129,-66],[4,-167],[111,-78],[-133,-78],[159,49],[-119,-215],[-89,24],[154,-158],[-68,-279],[106,-490],[-70,-69],[7,184],[-94,32],[-229,-23],[48,-59],[-198,-209],[113,34],[-9,-231],[-207,-58],[123,-56],[1,-145],[-201,-208],[-442,175],[213,-107],[-141,-22],[65,-145],[-109,-47],[18,139],[-96,-36],[-188,249],[-189,-49],[150,22],[166,-206],[-23,-150],[-102,31],[-28,-287],[-186,27],[-20,97],[-27,-73],[-101,42],[93,177],[-1,0],[-136,-147],[194,-150],[-165,-43],[112,-31],[-53,-107],[-144,26],[123,-70],[-130,-43],[-39,-146],[-213,7],[-189,200],[48,-93],[-490,68],[-239,-100],[-43,193],[-98,31],[213,47],[103,-92],[85,114],[-294,-14],[-82,220],[-101,-146],[84,-32],[-113,-17],[-71,109],[-132,204],[-241,69],[-166,399],[-133,41],[53,60],[-163,449],[355,-250],[7,-37],[90,-1],[39,94],[-100,-9],[-174,187],[199,36],[-248,33],[-109,-84],[58,233],[-460,394],[249,56],[-240,-28]],[[43866,2977],[136,-174],[60,-76],[67,11],[-263,239]],[[45465,1955],[-68,24],[108,104],[-228,-97],[188,-31]],[[42169,1540],[26,-40],[1,40],[-27,0]],[[44511,848],[-65,-29],[-35,88],[100,-59]],[[45095,4749],[474,-266],[-87,-185],[83,48],[60,-154],[-135,-37],[48,-14],[-24,-1],[-25,15],[-137,-39],[-122,53],[-27,148],[-190,98],[27,137],[-170,39],[225,158]],[[39832,4562],[111,363],[237,-90],[-5,-445],[-234,-135],[-109,307]],[[44956,999],[201,41],[37,-118],[-95,-68],[104,-242],[-185,139],[15,-117],[-114,-38],[-131,118],[73,51],[-147,27],[63,164],[126,-142],[195,43],[-101,6],[-41,136]],[[45237,4013],[383,83],[195,-171],[-168,-69],[-54,79],[-319,-32],[-96,41],[59,69]],[[44390,578],[-67,-297],[-125,107],[-60,-49],[-2,121],[60,39],[203,134],[-138,48],[98,122],[105,-191],[-74,-34]],[[44135,336],[-53,-43],[-51,97],[104,-54]],[[41158,3582],[79,121],[9,-6],[-17,51],[35,-44],[-15,-8],[167,-102],[-258,-12]],[[45283,1265],[-71,-80],[76,206],[124,-95],[-129,-31]],[[41054,3966],[-37,-244],[-61,144],[98,100]],[[45344,3833],[170,39],[-65,-131],[-105,92]],[[41117,3915],[66,65],[107,-44],[-173,-21]],[[44907,4411],[-26,-82],[-40,-10],[66,92]],[[44988,4088],[89,-5],[-36,-28],[-53,33]],[[44316,5040],[3,53],[51,-15],[-54,-38]],[[41384,3543],[79,-44],[-74,13],[-5,31]],[[45574,1671],[-76,32],[142,-41],[-66,9]],[[45152,4847],[20,26],[37,-14],[-57,-12]],[[44258,5070],[37,39],[-9,-41],[-28,2]],[[45050,4809],[76,-7],[-57,-10],[-19,17]],[[45567,4118],[47,-18],[-56,0],[9,18]],[[45604,4498],[14,25],[25,-23],[-39,-2]],[[43062,181],[42,-10],[-35,-13],[-7,23]],[[45638,3850],[3,-29],[-24,25],[21,4]],[[45225,4026],[-11,-14],[-44,-8],[55,22]],[[42971,122],[15,-16],[-24,-9],[9,25]],[[45085,4110],[24,24],[-5,-25],[-19,1]],[[45314,3559],[43,19],[-12,-15],[-31,-4]],[[45069,4229],[18,-8],[-29,-10],[11,18]],[[45587,3842],[16,8],[-5,-28],[-11,20]],[[44935,4091],[4,-23],[-19,18],[15,5]],[[43884,5374],[17,-7],[-20,-14],[3,21]],[[43907,740],[24,31],[-7,-25],[-17,-6]],[[45161,4211],[1,23],[16,-13],[-17,-10]],[[45367,4087],[9,9],[32,-1],[-41,-8]],[[43439,5064],[26,16],[-14,-19],[-12,3]],[[44537,811],[-2,-9],[-21,22],[23,-13]],[[45334,4089],[3,-17],[-15,2],[12,15]],[[39807,4828],[10,12],[14,-5],[-24,-7]],[[44737,928],[-13,11],[8,8],[5,-19]],[[41111,3620],[13,-5],[-18,-7],[5,12]],[[45192,596],[15,3],[-14,-13],[-1,10]],[[43117,5362],[9,-7],[-14,-6],[5,13]],[[40921,3692],[18,-3],[-13,-6],[-5,9]],[[42986,143],[7,8],[7,-8],[-14,0]],[[45638,2835],[-11,7],[12,2],[-1,-9]],[[42573,488],[2,-7]],[[42575,481],[-2,7]],[[41153,3578],[3,0]],[[41156,3578],[-3,0]],[[42573,481],[2,0]],[[42575,481],[-2,0]],[[40862,3202],[1,-1]],[[40863,3201],[-1,1]],[[40916,3044],[0,-1]],[[40916,3043],[0,1]],[[20712,34276],[242,-127],[-40,-251],[186,191],[-89,35],[-7,200],[328,-121],[157,-198],[-52,-86],[156,44],[-238,420],[118,-120],[-18,110],[290,-71],[129,101],[-172,-66],[52,81],[-177,-3],[-114,174],[253,90],[-328,-14],[-3,102],[-89,24],[-2,-70],[-123,96],[13,102],[186,251],[-42,94],[100,-112],[53,156],[191,42],[91,562],[104,74],[143,-111],[235,165],[62,133],[-158,141],[16,234],[270,91],[18,261],[140,37],[94,-72],[-60,90],[40,65],[27,-160],[109,-84],[-4,83],[153,-7],[-249,91],[124,-6],[-96,58],[14,220],[240,-38],[-42,-190],[140,50],[70,-151],[-17,90],[109,-28],[-139,146],[123,-57],[-9,100],[-169,76],[103,91],[205,-21],[-31,240],[178,-32],[72,-133],[93,287],[47,-200],[178,-86],[525,82],[246,-106],[216,159],[195,-78],[309,177],[34,234],[-97,121],[84,71],[-187,57],[125,31],[-90,220],[-373,15],[-157,-100],[-222,262],[-232,3],[154,161],[102,-85],[41,152],[154,-103],[73,-248],[87,94],[-84,21],[-47,240],[188,-182],[-21,118],[101,66],[37,-208],[101,92],[279,-354],[294,106],[28,112],[303,-445],[241,15],[-29,-87],[109,41],[70,-82],[100,49],[-20,-138],[355,179],[157,-20],[-99,-159],[378,-27],[53,-231],[11,9],[-8,-21],[8,-37],[83,179],[322,-105],[326,148],[61,-97],[20,6],[26,-26],[-45,19],[76,-120],[460,-194],[-67,83],[234,-25],[-154,67],[184,125],[263,-19],[438,176],[-332,-296],[76,-129],[430,294],[-151,-191],[172,-20],[-122,-195],[64,-106],[371,112],[95,182],[-272,98],[510,341],[-152,-144],[111,9],[152,-332],[120,-2],[-46,60],[-7,-11],[-6,25],[-20,28],[131,32],[186,-145],[-72,-120],[140,44],[-266,-250],[27,123],[-88,-35],[-73,-130],[120,17],[-88,-159],[-113,-15],[20,-137],[-91,117],[-10,-79],[-100,31],[261,-265],[-276,29],[146,-95],[-127,-223],[-178,-91],[74,116],[-71,230],[-22,-150],[-125,26],[-49,-173],[-46,192],[-128,-225],[-54,117],[-118,-82],[-42,-97],[120,-47],[-145,-45],[24,-323],[262,62],[-222,-392],[-8,-239],[-259,-95],[-126,-275],[32,10],[-23,-28],[-12,13],[-80,-174],[-204,-86],[37,-175],[155,-171],[913,-474],[99,-249],[307,-148],[218,65],[-104,-87],[81,-193],[318,-8],[32,103],[509,-334],[460,-118],[342,-363]],[[22528,38450],[-43,235],[282,-145],[-35,-129],[114,74],[69,-182],[128,-45],[-135,168],[250,91],[172,-69],[149,139],[78,-112],[87,183],[34,-100],[173,9],[138,-221],[-97,-186],[-114,30],[-128,-185],[-423,-238],[-590,335],[-109,348]],[[30558,35714],[69,21],[41,-228],[229,94],[-173,-222],[46,-103],[-138,-101],[82,-88],[258,37],[-16,-164],[-389,8],[-273,120],[-144,-59],[152,146],[-34,320],[276,76],[-72,117],[75,23],[9,18],[2,-15]],[[22815,37961],[-164,-64],[-625,65],[71,127],[163,24],[41,-109],[-18,84],[107,-69],[-145,105],[6,146],[85,-12],[-146,53],[246,195],[168,-414],[211,-131]],[[29167,37679],[283,124],[121,182],[72,-29],[-192,-229],[-279,-116],[-5,68]],[[25326,38701],[8,-241],[-162,377],[171,82],[-17,-218]],[[30954,33259],[77,177],[94,-82],[-9,-226],[-162,131]],[[30660,38792],[50,70],[-98,-274],[-241,-195],[289,399]],[[29978,35590],[-110,-52],[109,174],[132,-44],[-58,-169],[-73,91]],[[30526,33474],[-35,-107],[-122,1],[38,134],[119,-28]],[[29914,35886],[-64,197],[145,-110],[-81,-87]],[[30697,33365],[113,-48],[-128,-90],[15,138]],[[29913,37643],[223,84],[-155,-122],[-68,38]],[[26369,38296],[131,-24],[-139,-39],[8,63]],[[29721,38033],[-51,44],[124,41],[-73,-85]],[[28339,37564],[-65,-19],[-28,99],[93,-80]],[[30212,38214],[130,115],[-31,-77],[-99,-38]],[[29331,34245],[89,69],[7,-64],[-96,-5]],[[26361,38126],[124,23],[-144,-75],[20,52]],[[22025,36299],[-3,78],[74,-72],[-71,-6]],[[25009,37584],[84,22],[27,-54],[-111,32]],[[30396,37937],[23,43],[121,24],[-144,-67]],[[30374,35657],[26,-89],[-67,60],[41,29]],[[28325,37657],[106,-5],[-42,-34],[-64,39]],[[30855,33409],[-35,-44],[46,167],[-11,-123]],[[30261,37861],[25,-39],[-82,-12],[57,51]],[[28514,37751],[0,41],[86,-9],[-86,-32]],[[23347,37584],[25,-38],[-82,10],[57,28]],[[30759,37555],[34,54],[5,-73],[-39,19]],[[24720,38157],[25,56],[25,-53],[-50,-3]],[[29661,37809],[-5,30],[65,34],[-60,-64]],[[25741,38714],[21,-32],[-81,26],[60,6]],[[30337,37875],[36,66],[-44,-131],[8,65]],[[30810,33460],[-2,-22],[-80,7],[82,15]],[[30204,35508],[-43,4],[30,36],[13,-40]],[[25854,38790],[-17,41],[50,-28],[-33,-13]],[[30134,38174],[-198,-113],[269,160],[-71,-47]],[[29923,37488],[3,-24],[-61,5],[58,19]],[[23329,37627],[-39,7],[80,22],[-41,-29]],[[21604,34364],[-29,26],[79,-24],[-50,-2]],[[29931,38055],[-31,-34],[9,52],[22,-18]],[[29652,37994],[49,19],[-23,-34],[-26,15]],[[23391,37677],[61,18],[10,-17],[-71,-1]],[[29766,37518],[10,68],[16,-12],[-26,-56]],[[29831,35951],[6,30],[34,-25],[-40,-5]],[[23377,37611],[32,21],[43,-6],[-75,-15]],[[30044,35963],[5,28],[34,-31],[-39,3]],[[24963,38179],[5,35],[27,-21],[-32,-14]],[[30749,33404],[-1,27],[38,-14],[-37,-13]],[[30928,35750],[45,13],[-15,-25],[-30,12]],[[28249,37681],[17,-22],[-44,3],[27,19]],[[22110,36265],[21,13],[7,-36],[-28,23]],[[30565,33413],[28,19],[15,-17],[-43,-2]],[[28432,37582],[-18,36],[30,-15],[-12,-21]],[[30781,33247],[-19,22],[39,-4],[-20,-18]],[[22489,36934],[-3,29],[24,-12],[-21,-17]],[[29826,37968],[3,21],[32,13],[-35,-34]],[[22528,37004],[14,22],[17,-19],[-31,-3]],[[29856,36149],[-6,-23],[-19,28],[25,-5]],[[29789,37337],[33,30],[-25,-40],[-8,10]],[[25415,38640],[40,19],[-27,-27],[-13,8]],[[30294,37797],[27,21],[-5,-25],[-22,4]],[[25580,38423],[0,18],[31,-19],[-31,1]],[[30682,38875],[32,2],[-20,-18],[-12,16]],[[22507,36986],[9,20],[19,-17],[-28,-3]],[[30031,35812],[20,-16],[-29,-1],[9,17]],[[25677,38812],[6,18],[25,-3],[-31,-15]],[[25035,37510],[-5,-38],[-9,20],[14,18]],[[25640,38890],[-4,33],[14,-8],[-10,-25]],[[29793,37948],[-26,-30],[17,36],[9,-6]],[[30616,35758],[17,18],[3,-22],[-20,4]],[[28370,37600],[14,8],[3,-26],[-17,18]],[[28638,38052],[7,17],[15,-20],[-22,3]],[[29995,38149],[4,-27],[-19,33],[15,-6]],[[30147,37741],[13,20],[4,-19],[-17,-1]],[[29831,38166],[-1,21],[16,6],[-15,-27]],[[30245,35760],[23,10],[4,-12],[-27,2]],[[30901,35715],[-27,-9],[28,21],[-1,-12]],[[29868,38215],[20,23],[-10,-26],[-10,3]],[[30476,35720],[10,12],[22,-4],[-32,-8]],[[22520,36974],[-14,-6],[-11,13],[25,-7]],[[30699,35687],[-23,-5],[6,12],[17,-7]],[[29802,38121],[9,18],[1,-24],[-10,6]],[[25004,38245],[5,27],[3,-31],[-8,4]],[[23114,37048],[10,-9],[-14,-10],[4,19]],[[25518,38532],[-14,13],[17,0],[-3,-13]],[[30954,33230],[-3,-20],[-9,11],[12,9]],[[30240,35672],[6,-14],[-25,25],[19,-11]],[[28338,37625],[10,7],[5,-16],[-15,9]],[[25645,38881],[-5,-21],[-11,-5],[16,26]],[[24509,38316],[9,6],[13,-13],[-22,7]],[[29697,36115],[4,-15],[-19,27],[15,-12]],[[23741,37581],[7,-14],[-12,-4],[5,18]],[[30416,35678],[-2,13],[13,1],[-11,-14]],[[25160,38140],[-2,11],[16,-5],[-14,-6]],[[29767,37489],[-10,-26],[7,35],[3,-9]],[[30535,36668],[-8,9],[12,5],[-4,-14]],[[30574,35731],[-9,-12],[-4,9],[13,3]],[[30985,35011],[4,8],[11,-7],[-15,-1]],[[30212,36130],[-4,7],[16,0],[-12,-7]],[[30929,34903],[4,8],[12,-6],[-16,-2]],[[22838,37917],[13,-2],[-18,-6],[5,8]],[[27428,37746],[13,5],[-8,-12],[-5,7]],[[30925,35716],[3,10],[10,-5],[-13,-5]],[[30468,35580],[0,9],[9,-1],[-9,-8]],[[26272,38092],[0,9],[8,-2],[-8,-7]],[[30507,35714],[6,9],[4,-3],[-10,-6]],[[30587,35719],[1,-24],[22,31],[-23,-7]]],"transform":{"scale":[0.0007760263498411952,0.0008419976635514019],"translate":[112.928,-43.74]},"objects":{"states":{"type":"GeometryCollection","geometries":[{"arcs":[[[0,1,2,3,4,5,6,7,8,9,10,11,12,13,14,15,16,17,18],[19],[20],[26]],[[21]],[[22]],[[23]],[[24]],[[25]]],"type":"MultiPolygon","properties":{"state_code":"1","state_name":"New South Wales","boundary_edition":2026}},{"arcs":[[[-12,27,-10,28,-8,29,-6,30,-4,31,-2,32,33,34]],[[35]],[[36]],[[37]],[[38]],[[39]],[[40]],[[41]],[[42]],[[43]],[[44]],[[45]],[[46]],[[47]],[[48]],[[49]],[[50]],[[51]]],"type":"MultiPolygon","properties":{"state_code":"2","state_name":"Victoria","boundary_edition":2026}},{"arcs":[[[-18,52,-16,53,-14,54,55,56,57,58,59]],[[60]],[[61]],[[62]],[[63]],[[64]],[[65]],[[66]],[[67]],[[68]],[[69]],[[70]],[[71]],[[72]],[[73]],[[74]],[[75]],[[76]],[[77]],[[78]],[[79]],[[80]],[[81]],[[82]],[[83]],[[84]],[[85]],[[86]],[[87]],[[88]],[[89]],[[90]],[[91]],[[92]],[[93]],[[94]],[[95]],[[96]],[[97]],[[98]],[[99]],[[100]],[[101]],[[102]],[[103]],[[104]],[[105]],[[106]],[[107]],[[108]],[[109]],[[110]],[[111]],[[112]],[[113]],[[114]],[[115]],[[116]],[[117]],[[118]],[[119]],[[120]],[[121]],[[122]],[[123]],[[124]],[[125]],[[126]],[[127]],[[128]],[[129]],[[130]],[[131]],[[132]],[[133]],[[134]],[[135]],[[136]],[[137]],[[138]],[[139]],[[140]],[[141]],[[142]],[[143]],[[144]],[[145]],[[146]],[[147]],[[148]],[[149]],[[150]],[[151]],[[152]],[[153]],[[154]],[[155]],[[156]],[[157]],[[158]],[[159]],[[160]],[[161]],[[162]],[[163]],[[164]],[[165]],[[166]],[[167]],[[168]],[[169]],[[170]],[[171]],[[172]],[[173]],[[174]],[[175]],[[176]],[[177]],[[178]],[[179]],[[180]],[[181]],[[182]],[[183]],[[184]],[[185]],[[186]],[[187]],[[188]],[[189]],[[190]],[[191]],[[192]],[[193]],[[194]],[[195]],[[196]],[[197]],[[198]],[[199]],[[200]],[[201]],[[202]],[[203]],[[204]],[[205]],[[206]],[[207]],[[208]],[[209]],[[210]],[[211]],[[212]],[[213]],[[214]],[[215]],[[216]],[[217]],[[218]],[[219]],[[220]],[[221]],[[222]],[[223]],[[224]],[[225]],[[226]],[[227]],[[228]],[[229]],[[230]],[[231]],[[232]],[[233]],[[234]],[[235]],[[236]],[[237]],[[238]],[[239]],[[240]],[[241]],[[242]],[[243]],[[244]],[[245]],[[246]],[[247]],[[248]],[[249]],[[250]],[[251]],[[252]],[[253]],[[254]],[[255]],[[256]],[[257]],[[258]],[[261]]],"type":"MultiPolygon","properties":{"state_code":"3","state_name":"Queensland","boundary_edition":2026}},{"arcs":[[[-34,264,265,266,-56,267]],[[268]],[[269]],[[270]],[[271]],[[272]],[[273]],[[274]],[[275]],[[276]],[[277]],[[278]],[[279]],[[280]],[[281]],[[282]],[[283]],[[284]],[[285]],[[286]],[[287]],[[288]],[[289]],[[290]],[[291]],[[292]],[[293]],[[294]],[[295]],[[296]],[[297]]],"type":"MultiPolygon","properties":{"state_code":"4","state_name":"South Australia","boundary_edition":2026}},{"arcs":[[[298,299,300,-266,301],[302],[555],[556],[557]],[[303]],[[304]],[[305]],[[306]],[[307]],[[308]],[[309]],[[310]],[[311]],[[312]],[[313]],[[314]],[[315]],[[316]],[[317]],[[318]],[[319]],[[320]],[[321]],[[322]],[[323]],[[324]],[[325]],[[326]],[[327]],[[328]],[[329]],[[330]],[[331]],[[332]],[[333]],[[334]],[[335]],[[336]],[[337]],[[338]],[[339]],[[340]],[[341]],[[342]],[[343]],[[344]],[[345]],[[346]],[[347]],[[348]],[[349]],[[350]],[[351]],[[352]],[[353]],[[354]],[[355]],[[356]],[[357]],[[358]],[[359]],[[360]],[[361]],[[362]],[[363]],[[364]],[[365]],[[366]],[[367]],[[368]],[[369]],[[370]],[[371]],[[372]],[[373]],[[374]],[[375]],[[376]],[[377]],[[378]],[[379]],[[380]],[[381]],[[382]],[[383]],[[384]],[[385]],[[386]],[[387]],[[388]],[[389]],[[390]],[[391]],[[392]],[[393]],[[394]],[[395]],[[396]],[[397]],[[398]],[[399]],[[400]],[[401]],[[402]],[[403]],[[404]],[[405]],[[406]],[[407]],[[408]],[[409]],[[410]],[[411]],[[412]],[[413]],[[414]],[[415]],[[416]],[[417]],[[418]],[[419]],[[420]],[[421]],[[422]],[[423]],[[424]],[[425]],[[426]],[[427]],[[428]],[[429]],[[430]],[[431]],[[432]],[[433]],[[434]],[[435]],[[436]],[[437]],[[438]],[[439]],[[440]],[[441]],[[442]],[[443]],[[444]],[[445]],[[446]],[[447]],[[448]],[[449]],[[450]],[[451]],[[452]],[[453]],[[454]],[[455]],[[456]],[[457]],[[458]],[[459]],[[460]],[[461]],[[462]],[[463]],[[464]],[[465]],[[466]],[[467]],[[468]],[[469]],[[470]],[[471]],[[472]],[[473]],[[474]],[[475]],[[476]],[[477]],[[478]],[[479]],[[480]],[[481]],[[482]],[[483]],[[484]],[[485,486]],[[487]],[[488]],[[489]],[[490]],[[491]],[[492]],[[493]],[[494]],[[495]],[[496]],[[497]],[[498]],[[499]],[[500]],[[501]],[[502]],[[503]],[[504]],[[505]],[[506]],[[507]],[[508]],[[509]],[[510]],[[511]],[[512]],[[513]],[[514]],[[515]],[[516]],[[517]],[[518]],[[519]],[[520]],[[521]],[[522]],[[523]],[[524]],[[525]],[[526]],[[527]],[[528]],[[529]],[[530]],[[531]],[[532]],[[533]],[[534]],[[535]],[[536]],[[537]],[[538]],[[539]],[[540]],[[541]],[[542]],[[543]],[[544]],[[545]],[[546]],[[547]],[[548]],[[549]],[[550]],[[551]],[[552]],[[553]],[[554]]],"type":"MultiPolygon","properties":{"state_code":"5","state_name":"Western Australia","boundary_edition":2026}},{"arcs":[[[558],[559],[560],[561]],[[562]],[[563]],[[564]],[[565]],[[566]],[[567]],[[568]],[[569]],[[570]],[[571]],[[572]],[[573]],[[574]],[[575]],[[576]],[[577]],[[578]],[[579]],[[580]],[[581]],[[582]],[[583]],[[584]],[[585]],[[586]],[[587]],[[588]],[[589]],[[590]],[[591]],[[592]],[[593]],[[594]],[[595]],[[596]],[[597]],[[598]],[[599]],[[600]],[[601]],[[602]],[[603]],[[604]],[[605]],[[606]],[[607]]],"type":"MultiPolygon","properties":{"state_code":"6","state_name":"Tasmania","boundary_edition":2026}},{"arcs":[[[-57,-267,-301,618]],[[619]],[[620],[725]],[[621]],[[622]],[[623]],[[624]],[[625]],[[626]],[[627]],[[628]],[[629]],[[630]],[[631]],[[632]],[[633]],[[634]],[[635]],[[636]],[[637]],[[638]],[[639]],[[640]],[[641]],[[642]],[[643]],[[644]],[[645]],[[646]],[[647]],[[648]],[[649]],[[650]],[[651]],[[652]],[[653]],[[654]],[[655]],[[656]],[[657]],[[658]],[[659]],[[660]],[[661]],[[662]],[[663]],[[664]],[[665]],[[666]],[[667]],[[668]],[[669]],[[670]],[[671]],[[672]],[[673]],[[674]],[[675]],[[676]],[[677]],[[678]],[[679]],[[680]],[[681]],[[682]],[[683]],[[684]],[[685]],[[686]],[[687]],[[688]],[[689]],[[690]],[[691]],[[692]],[[693]],[[694]],[[695]],[[696]],[[697]],[[698]],[[699]],[[700]],[[701]],[[702]],[[703]],[[704]],[[705]],[[706]],[[707]],[[708]],[[709]],[[710]],[[711]],[[712]],[[713]],[[714]],[[715]],[[716]],[[717]],[[718]],[[719]],[[720]],[[721]],[[722]],[[723]],[[724]]],"type":"MultiPolygon","properties":{"state_code":"7","state_name":"Northern Territory","boundary_edition":2026}},{"arcs":[[-27]],"type":"Polygon","properties":{"state_code":"8","state_name":"Australian Capital Territory","boundary_edition":2026}}]}}}